{
  "type": "FeatureCollection",
  "features": [
    {
      "type": "Feature",
      "properties": {
        "norad_id": 66661,
        "name": "SNUGLITE-III",
        "group": "last-30-days",
        "lat": -79.55537876554634,
        "lon": 45.28770983076179,
        "alt_km": 587.0739978493666,
        "timestamp": "2025-12-11T13:55:00.915287+00:00",
        "meta_object_name": "SNUGLITE-III",
        "meta_object_id": "2025-274M",
        "meta_epoch": "2025-12-11T06:18:29.170368",
        "meta_mean_motion": 14.93085688,
        "meta_eccentricity": 0.00134522,
        "meta_inclination": 97.7385,
        "meta_ra_of_asc_node": 272.5094,
        "meta_arg_of_pericenter": 287.6094,
        "meta_mean_anomaly": 72.3656,
        "meta_ephemeris_type": 0,
        "meta_classification_type": "U",
        "meta_norad_cat_id": 66661,
        "meta_element_set_no": 999,
        "meta_rev_at_epoch": 218,
        "meta_bstar": 0.00040669931,
        "meta_mean_motion_dot": 4.187e-05,
        "meta_mean_motion_ddot": 0,
        "tle_line1": "1 66661U 25274M   25345.26283762  .00004187  00000+0  40670-3 0  9999",
        "tle_line2": "2 66661  97.7385 272.5094 0013452 287.6094  72.3656 14.93085688  2188"
      },
      "geometry": {
        "type": "Point",
        "coordinates": [
          45.28770983076179,
          -79.55537876554634
        ]
      }
    },
    {
      "type": "Feature",
      "properties": {
        "norad_id": 66662,
        "name": "2025-274N",
        "group": "last-30-days",
        "lat": -81.3442001654184,
        "lon": 29.538890713496574,
        "alt_km": 586.4002798080719,
        "timestamp": "2025-12-11T13:55:00.915297+00:00",
        "meta_object_name": "2025-274N",
        "meta_object_id": "2025-274N",
        "meta_epoch": "2025-12-11T04:41:09.280320",
        "meta_mean_motion": 14.93135946,
        "meta_eccentricity": 0.00139156,
        "meta_inclination": 97.7384,
        "meta_ra_of_asc_node": 272.4443,
        "meta_arg_of_pericenter": 287.3948,
        "meta_mean_anomaly": 72.5749,
        "meta_ephemeris_type": 0,
        "meta_classification_type": "U",
        "meta_norad_cat_id": 66662,
        "meta_element_set_no": 999,
        "meta_rev_at_epoch": 217,
        "meta_bstar": 0.00044941904,
        "meta_mean_motion_dot": 4.64e-05,
        "meta_mean_motion_ddot": 0,
        "tle_line1": "1 66662U 25274N   25345.19524630  .00004640  00000+0  44942-3 0  9994",
        "tle_line2": "2 66662  97.7384 272.4443 0013915 287.3948  72.5749 14.93135946  2171"
      },
      "geometry": {
        "type": "Point",
        "coordinates": [
          29.538890713496574,
          -81.3442001654184
        ]
      }
    },
    {
      "type": "Feature",
      "properties": {
        "norad_id": 66663,
        "name": "KSLV-II R/B",
        "group": "last-30-days",
        "lat": 47.82710310333156,
        "lon": 101.56798862776807,
        "alt_km": 606.140396102227,
        "timestamp": "2025-12-11T13:55:00.915308+00:00",
        "meta_object_name": "KSLV-II R/B",
        "meta_object_id": "2025-274P",
        "meta_epoch": "2025-12-10T16:28:46.841664",
        "meta_mean_motion": 14.97260202,
        "meta_eccentricity": 0.00515006,
        "meta_inclination": 97.7409,
        "meta_ra_of_asc_node": 272.0473,
        "meta_arg_of_pericenter": 326.4324,
        "meta_mean_anomaly": 33.3638,
        "meta_ephemeris_type": 0,
        "meta_classification_type": "U",
        "meta_norad_cat_id": 66663,
        "meta_element_set_no": 999,
        "meta_rev_at_epoch": 210,
        "meta_bstar": 0.00042412813,
        "meta_mean_motion_dot": 4.986e-05,
        "meta_mean_motion_ddot": 0,
        "tle_line1": "1 66663U 25274P   25344.68665326  .00004986  00000+0  42413-3 0  9990",
        "tle_line2": "2 66663  97.7409 272.0473 0051500 326.4324  33.3638 14.97260202  2107"
      },
      "geometry": {
        "type": "Point",
        "coordinates": [
          101.56798862776807,
          47.82710310333156
        ]
      }
    },
    {
      "type": "Feature",
      "properties": {
        "norad_id": 66664,
        "name": "SOYUZ-MS 28",
        "group": "last-30-days",
        "lat": 26.35030561744162,
        "lon": 171.32768744314035,
        "alt_km": 417.0466415974661,
        "timestamp": "2025-12-11T13:55:00.915321+00:00",
        "meta_object_name": "SOYUZ-MS 28",
        "meta_object_id": "2025-275A",
        "meta_epoch": "2025-12-11T04:28:53.401152",
        "meta_mean_motion": 15.49499993,
        "meta_eccentricity": 0.00033343,
        "meta_inclination": 51.6309,
        "meta_ra_of_asc_node": 150.1691,
        "meta_arg_of_pericenter": 234.1557,
        "meta_mean_anomaly": 125.9122,
        "meta_ephemeris_type": 0,
        "meta_classification_type": "U",
        "meta_norad_cat_id": 66664,
        "meta_element_set_no": 999,
        "meta_rev_at_epoch": 128,
        "meta_bstar": 0.00030173842,
        "meta_mean_motion_dot": 0.00016503,
        "meta_mean_motion_ddot": 0,
        "tle_line1": "1 66664U 25275A   25345.18672918  .00016503  00000+0  30174-3 0  9992",
        "tle_line2": "2 66664  51.6309 150.1691 0003334 234.1557 125.9122 15.49499993  1282"
      },
      "geometry": {
        "type": "Point",
        "coordinates": [
          171.32768744314035,
          26.35030561744162
        ]
      }
    },
    {
      "type": "Feature",
      "properties": {
        "norad_id": 66791,
        "name": "STARLINK-35867",
        "group": "last-30-days",
        "lat": -27.948746949005457,
        "lon": 114.02378538849591,
        "alt_km": 304.6515813812266,
        "timestamp": "2025-12-11T13:55:00.915337+00:00",
        "meta_object_name": "STARLINK-35867",
        "meta_object_id": "2025-278A",
        "meta_epoch": "2025-12-11T06:00:02.999808",
        "meta_mean_motion": 15.90474597,
        "meta_eccentricity": 0.00019866,
        "meta_inclination": 42.9981,
        "meta_ra_of_asc_node": 261.3608,
        "meta_arg_of_pericenter": 276.0528,
        "meta_mean_anomaly": 216.875,
        "meta_ephemeris_type": 0,
        "meta_classification_type": "U",
        "meta_norad_cat_id": 66791,
        "meta_element_set_no": 999,
        "meta_rev_at_epoch": 271,
        "meta_bstar": -0.0035089633,
        "meta_mean_motion_dot": -0.0100119,
        "meta_mean_motion_ddot": 0,
        "tle_line1": "1 66791U 25278A   25345.25003472 -.01001190  00000+0 -35090-2 0  9997",
        "tle_line2": "2 66791  42.9981 261.3608 0001986 276.0528 216.8750 15.90474597  2714"
      },
      "geometry": {
        "type": "Point",
        "coordinates": [
          114.02378538849591,
          -27.948746949005457
        ]
      }
    },
    {
      "type": "Feature",
      "properties": {
        "norad_id": 66792,
        "name": "STARLINK-35990",
        "group": "last-30-days",
        "lat": -28.80364978381373,
        "lon": 115.47504215391878,
        "alt_km": 304.5867976814261,
        "timestamp": "2025-12-11T13:55:00.915348+00:00",
        "meta_object_name": "STARLINK-35990",
        "meta_object_id": "2025-278B",
        "meta_epoch": "2025-12-11T06:00:02.999808",
        "meta_mean_motion": 15.90516714,
        "meta_eccentricity": 0.00019329,
        "meta_inclination": 42.9979,
        "meta_ra_of_asc_node": 261.3571,
        "meta_arg_of_pericenter": 275.2628,
        "meta_mean_anomaly": 219.1601,
        "meta_ephemeris_type": 0,
        "meta_classification_type": "U",
        "meta_norad_cat_id": 66792,
        "meta_element_set_no": 999,
        "meta_rev_at_epoch": 271,
        "meta_bstar": -0.0035450851,
        "meta_mean_motion_dot": -0.01012359,
        "meta_mean_motion_ddot": 0,
        "tle_line1": "1 66792U 25278B   25345.25003472 -.01012359  00000+0 -35451-2 0  9998",
        "tle_line2": "2 66792  42.9979 261.3571 0001932 275.2628 219.1601 15.90516714  2713"
      },
      "geometry": {
        "type": "Point",
        "coordinates": [
          115.47504215391878,
          -28.80364978381373
        ]
      }
    },
    {
      "type": "Feature",
      "properties": {
        "norad_id": 66793,
        "name": "STARLINK-36051",
        "group": "last-30-days",
        "lat": -31.476542962545473,
        "lon": 120.37456235877542,
        "alt_km": 304.46441513246464,
        "timestamp": "2025-12-11T13:55:00.915358+00:00",
        "meta_object_name": "STARLINK-36051",
        "meta_object_id": "2025-278C",
        "meta_epoch": "2025-12-11T06:00:02.999808",
        "meta_mean_motion": 15.90598546,
        "meta_eccentricity": 0.00018668,
        "meta_inclination": 42.9982,
        "meta_ra_of_asc_node": 261.3446,
        "meta_arg_of_pericenter": 274.2229,
        "meta_mean_anomaly": 225.1298,
        "meta_ephemeris_type": 0,
        "meta_classification_type": "U",
        "meta_norad_cat_id": 66793,
        "meta_element_set_no": 999,
        "meta_rev_at_epoch": 261,
        "meta_bstar": -0.0035763815,
        "meta_mean_motion_dot": -0.01024187,
        "meta_mean_motion_ddot": 0,
        "tle_line1": "1 66793U 25278C   25345.25003472 -.01024187  00000+0 -35764-2 0  9998",
        "tle_line2": "2 66793  42.9982 261.3446 0001866 274.2229 225.1298 15.90598546  2612"
      },
      "geometry": {
        "type": "Point",
        "coordinates": [
          120.37456235877542,
          -31.476542962545473
        ]
      }
    }
  ]
}